{"fetched_at":"2026-07-14T17:41:14.572Z","source":"https://celestrak.org/NORAD/elements/gp.php?NAME=UMBRA&FORMAT=JSON","constellation":"umbra","records":[{"OBJECT_NAME":"UMBRA-07","OBJECT_ID":"2023-174AT","EPOCH":"2026-07-14T03:41:22.429248","CLASSIFICATION_TYPE":"U","MEAN_MOTION":15.09609959,"ECCENTRICITY":0.0002417,"INCLINATION":97.3787,"RA_OF_ASC_NODE":249.9007,"ARG_OF_PERICENTER":21.6183,"MEAN_ANOMALY":338.5148,"EPHEMERIS_TYPE":0,"NORAD_CAT_ID":58297,"ELEMENT_SET_NO":999,"REV_AT_EPOCH":14748,"BSTAR":0.00033826,"MEAN_MOTION_DOT":0.00005377,"MEAN_MOTION_DDOT":0},{"OBJECT_NAME":"UMBRA-09","OBJECT_ID":"2024-149CB","EPOCH":"2026-07-14T05:13:23.283840","CLASSIFICATION_TYPE":"U","MEAN_MOTION":15.18831769,"ECCENTRICITY":0.0001982,"INCLINATION":97.698,"RA_OF_ASC_NODE":282.9,"ARG_OF_PERICENTER":203.9529,"MEAN_ANOMALY":156.1613,"EPHEMERIS_TYPE":0,"NORAD_CAT_ID":60541,"ELEMENT_SET_NO":999,"REV_AT_EPOCH":10482,"BSTAR":0.00044145,"MEAN_MOTION_DOT":0.00009126,"MEAN_MOTION_DDOT":0},{"OBJECT_NAME":"UMBRA-10","OBJECT_ID":"2024-149CH","EPOCH":"2026-07-14T05:12:43.964064","CLASSIFICATION_TYPE":"U","MEAN_MOTION":15.18833005,"ECCENTRICITY":0.0001522,"INCLINATION":97.6983,"RA_OF_ASC_NODE":282.9299,"ARG_OF_PERICENTER":167.6601,"MEAN_ANOMALY":192.467,"EPHEMERIS_TYPE":0,"NORAD_CAT_ID":60547,"ELEMENT_SET_NO":999,"REV_AT_EPOCH":10483,"BSTAR":0.00041316,"MEAN_MOTION_DOT":0.00008536,"MEAN_MOTION_DDOT":0},{"OBJECT_NAME":"UMBRA-11","OBJECT_ID":"2025-276CL","EPOCH":"2026-07-14T04:26:28.034016","CLASSIFICATION_TYPE":"U","MEAN_MOTION":15.27756345,"ECCENTRICITY":0.0002613,"INCLINATION":97.4193,"RA_OF_ASC_NODE":269.6656,"ARG_OF_PERICENTER":187.68,"MEAN_ANOMALY":172.4399,"EPHEMERIS_TYPE":0,"NORAD_CAT_ID":66748,"ELEMENT_SET_NO":999,"REV_AT_EPOCH":3461,"BSTAR":0.0004568,"MEAN_MOTION_DOT":0.0001232,"MEAN_MOTION_DDOT":0},{"OBJECT_NAME":"UMBRA-12","OBJECT_ID":"2026-004J","EPOCH":"2026-07-13T23:30:45.940032","CLASSIFICATION_TYPE":"U","MEAN_MOTION":14.89527066,"ECCENTRICITY":0.0007463,"INCLINATION":97.8021,"RA_OF_ASC_NODE":193.3821,"ARG_OF_PERICENTER":56.0876,"MEAN_ANOMALY":304.105,"EPHEMERIS_TYPE":0,"NORAD_CAT_ID":67371,"ELEMENT_SET_NO":999,"REV_AT_EPOCH":2729,"BSTAR":0.00022088,"MEAN_MOTION_DOT":0.00002051,"MEAN_MOTION_DDOT":0}]}
