UMBRA-07                
1 58297U 23174AT  26195.15373182  .00005377  00000+0  33826-3 0  9997
2 58297  97.3787 249.9007 0002417  21.6183 338.5148 15.09609959147489
UMBRA-09                
1 60541U 24149CB  26195.21763060  .00009126  00000+0  44145-3 0  9992
2 60541  97.6980 282.9000 0001982 203.9529 156.1613 15.18831769104825
UMBRA-10                
1 60547U 24149CH  26195.21717551  .00008536  00000+0  41316-3 0  9993
2 60547  97.6983 282.9299 0001522 167.6601 192.4670 15.18833005104833
UMBRA-11                
1 66748U 25276CL  26195.18504669  .00012320  00000+0  45680-3 0  9998
2 66748  97.4193 269.6656 0002613 187.6800 172.4399 15.27756345 34612
UMBRA-12                
1 67371U 26004J   26194.97969838  .00002051  00000+0  22088-3 0  9997
2 67371  97.8021 193.3821 0007463  56.0876 304.1050 14.89527066 27293
